#aV2022  4 15  0  0  0.00000000     288 DD+AD WGS84 FIT  NGA
## 2205 432000.00000000   300.00000000 59684 0.0000000000000
+   32     1  2  3  4  5  6  7  8  9 10 11 12 13 14 15 16 17
+         18 19 20 21 22 23 24 25 26 27 28 29 30 31 32  0  0
+          0  0  0  0  0  0  0  0  0  0  0  0  0  0  0  0  0
+          0  0  0  0  0  0  0  0  0  0  0  0  0  0  0  0  0
+          0  0  0  0  0  0  0  0  0  0  0  0  0  0  0  0  0
++         2  2  2  2  2  2  2  2  2  2  2  2  2  2  2  2  2
++         2  2  2  2  2  2  2  2  2  2  2  2  2  2  2  0  0
++         0  0  0  0  0  0  0  0  0  0  0  0  0  0  0  0  0
++         0  0  0  0  0  0  0  0  0  0  0  0  0  0  0  0  0
++         0  0  0  0  0  0  0  0  0  0  0  0  0  0  0  0  0
%c cc cc ccc ccc cccc cccc cccc cccc ccccc ccccc ccccc ccccc
%c cc cc ccc ccc cccc cccc cccc cccc ccccc ccccc ccccc ccccc
%f  0.0000000  0.000000000  0.00000000000  0.000000000000000
%f  0.0000000  0.000000000  0.00000000000  0.000000000000000
%i    0    0    0    0      0      0      0      0         0
%i    0    0    0    0      0      0      0      0         0
/*      NGA, ST. LOUIS,MO.                                  
/*   EPHEMERIS COMPUTED FROM 2 DAYS OF DATA                 
/*   EPOCHA v7 SMOOTHER                                     
/*   G2139 IERS2010 SATIGS SATAPC                           
*  2022  4 15 18 15  0.00000000
P  1  13018.580686 -13410.399858  18432.872853    384.338082                    
V  1   -166.021494  24112.788030  17728.926689     -0.087068                    
P  2 -13888.275122  -9866.579270 -19684.597828   -653.117510                    
V  2    523.473986 -26504.677236  12647.144195     -0.001831                    
P  3  22952.998105 -13134.331244  -1767.970049   -207.853536                    
V  3   3039.172374   1273.758025  31993.171636     -0.153396                    
P  4  16900.567645  -5132.225251 -19851.961095   -175.652135                    
V  4  20054.323164  15304.597889  13026.613063      0.031167                    
P  5 -23154.657771   2616.610346 -13048.754049    -78.412360                    
V  5  13089.091002  -9864.430446 -25372.841576     -0.013650                    
P  6  -6017.982802 -23334.621080 -11011.754715    267.876522                    
V  6   2552.922247 -13953.959837  28086.259905      0.137044                    
P  7   5544.002785 -24938.434822  -5844.589801    320.264157                    
V  7   3037.091024   8220.257860 -30667.375454      0.011209                    
P  8  22745.237776   2871.684193  13674.551889    -64.066858                    
V  8  13716.299208  10679.570173 -24642.182643     -0.015722                    
P  9   6618.145555 -13963.692836 -21664.946797   -343.507573                    
V  9  23392.897016  14234.016887  -2064.548363      0.024861                    
P 10    427.857316  16065.635450  21238.249045   -380.364496                    
V 10 -24025.633238  11561.679376  -8602.269893     -0.128354                    
P 11 -13250.250813 -10456.431329 -20510.655745    -39.640157                    
V 11   3645.851310 -25792.255860  10781.245379      0.069557                    
P 12 -24686.357485   9460.711215   1423.592568   -200.830500                    
V 12    922.037212  -3287.069974  31960.349544     -0.058062                    
P 13 -22369.902455 -12116.688801   7776.001260    294.729622                    
V 13  -6120.418437  -8266.418506 -29741.530162      0.066573                    
P 14   1328.530496 -16733.738913  20559.581889   -102.690046                    
V 14  24147.197269 -10125.135646  -9878.968550     -0.027052                    
P 15 -22817.878502    187.229352  13440.322468    -68.697331                    
V 15 -14741.605427 -10194.695245 -23836.940056      0.029411                    
P 16  21290.047869   3309.751360 -16102.221414   -491.937171                    
V 16 -17787.241138   8678.447874 -21659.931031     -0.038189                    
P 17  -9416.764575 -19794.467927  15391.944727    600.760353                    
V 17  16002.581723   9911.792704  23238.231350      0.048047                    
P 18  -6271.859171  24883.348909  -6635.795110    194.729021                    
V 18  -1859.363389  -8582.914705 -30556.449534     -0.094703                    
P 19 -15435.143751 -19879.681056   8531.132496    144.788309                    
V 19   9903.994358   5441.062587  29495.506775      0.049814                    
P 20 -17392.608306  -4775.956764 -19417.208178    515.813508                    
V 20  19105.046392 -15892.609353 -13434.220900     -0.001854                    
P 21  15473.850902  -1472.066657  22167.333680    160.465604                    
V 21   1199.704161  26610.256766   1621.717194      0.003167                    
P 22  17228.039761  19294.139869   6848.323537    243.861355                    
V 22  -7923.401112  -3011.198397  30062.779778      0.060127                    
P 23 -11184.588734  18346.515281  15539.136886    -15.163904                    
V 23 -18242.105503   7856.993644 -22487.775377     -0.028554                    
P 24 -14408.451276   9321.267240  19874.065699    256.115881                    
V 24  -2255.494368 -26043.635733  10833.873266     -0.052030                    
P 25 -17126.031523  17311.071827 -10553.312444    312.368608                    
V 25 -12854.403656   3637.369677  27851.171555      0.049871                    
P 26  12318.349000  10714.864502 -21078.195778    198.837196                    
V 26 -22706.474617  13878.990952  -5930.982073      0.027980                    
P 27  23420.224389  12536.479083   3155.247999    183.739913                    
V 27   2402.228150   4051.535071 -31424.680734      0.090550                    
P 28  -7555.652506 -13388.136245  22162.492564    371.073405                    
V 28  24872.889636 -10257.811372   2562.955439     -0.037459                    
P 29  -8468.311530  12137.542303 -22106.002694   -503.387121                    
V 29 -22266.192414 -16782.303918   -745.577531     -0.041849                    
P 30   -173.280596 -26300.265603   2633.474300   -523.895722                    
V 30   3982.925274  -3028.227221 -31129.362183     -0.017318                    
P 31   7798.448344  21497.048746 -13231.326038   -173.544857                    
V 31  -3878.604126  16548.322636  25297.908234     -0.016524                    
P 32  12786.471328  19262.155024  13381.352574   -106.096309                    
V 32 -15232.539540  -7151.759948  24931.854564     -0.080642                    
EOF
